[{"OBJECT_NAME":"KINEIS-2C","OBJECT_ID":"2025-028B","EPOCH":"2026-03-09T22:20:44.060928","MEAN_MOTION":14.72317253,"ECCENTRICITY":9.527e-5,"INCLINATION":98.0273,"RA_OF_ASC_NODE":124.0949,"ARG_OF_PERICENTER":34.6076,"MEAN_ANOMALY":325.5193,"EPHEMERIS_TYPE":0,"CLASSIFICATION_TYPE":"U","NORAD_CAT_ID":62929,"ELEMENT_SET_NO":999,"REV_AT_EPOCH":5800,"BSTAR":0.00026506877,"MEAN_MOTION_DOT":1.626e-5,"MEAN_MOTION_DDOT":0},{"OBJECT_NAME":"COSMOS 2251 DEB","OBJECT_ID":"1993-036AGK","EPOCH":"2026-02-21T16:15:51.407712","MEAN_MOTION":14.61180672,"ECCENTRICITY":0.00473587,"INCLINATION":74.0256,"RA_OF_ASC_NODE":186.2538,"ARG_OF_PERICENTER":4.6404,"MEAN_ANOMALY":355.519,"EPHEMERIS_TYPE":0,"CLASSIFICATION_TYPE":"U","NORAD_CAT_ID":35022,"ELEMENT_SET_NO":999,"REV_AT_EPOCH":60179,"BSTAR":0.00036098097,"MEAN_MOTION_DOT":1.775e-5,"MEAN_MOTION_DDOT":0}]
